$$SOE
2460721.500000000, A.D. 2025-Feb-15 00:00:00.0000, -3.711219069666681E+08, -2.094043115083393E+08, 1.276708195869982E+06,
2460728.500000000, A.D. 2025-Feb-22 00:00:00.0000, -3.682740718154927E+08, -2.184413404008656E+08, 1.888286473459676E+06,
2460735.500000000, A.D. 2025-Mar-01 00:00:00.0000, -3.651984950482140E+08, -2.273433621071775E+08, 2.498698108766496E+06,
2460742.500000000, A.D. 2025-Mar-08 00:00:00.0000, -3.619002078810936E+08, -2.361068208518606E+08, 3.107586703301221E+06,
2460749.500000000, A.D. 2025-Mar-15 00:00:00.0000, -3.583841656073068E+08, -2.447282934142601E+08, 3.714605911337778E+06,
2460756.500000000, A.D. 2025-Mar-22 00:00:00.0000, -3.546552517703587E+08, -2.532044801667825E+08, 4.319419127337694E+06,
2460763.500000000, A.D. 2025-Mar-29 00:00:00.0000, -3.507182811138372E+08, -2.615321988682962E+08, 4.921698889212579E+06,
2460770.500000000, A.D. 2025-Apr-05 00:00:00.0000, -3.465780009641985E+08, -2.697083780431110E+08, 5.521126222890511E+06,
2460777.500000000, A.D. 2025-Apr-12 00:00:00.0000, -3.422390929546119E+08, -2.777300498096436E+08, 6.117390112212956E+06,
2460784.500000000, A.D. 2025-Apr-19 00:00:00.0000, -3.377061752592111E+08, -2.855943430097862E+08, 6.710187037997335E+06,
2460791.500000000, A.D. 2025-Apr-26 00:00:00.0000, -3.329838050494748E+08, -2.932984768148759E+08, 7.299220543256909E+06,
2460798.500000000, A.D. 2025-May-03 00:00:00.0000, -3.280764810448975E+08, -3.008397547655367E+08, 7.884200814178571E+06,
2460805.500000000, A.D. 2025-May-10 00:00:00.0000, -3.229886461183866E+08, -3.082155592162079E+08, 8.464844273505703E+06,
2460812.500000000, A.D. 2025-May-17 00:00:00.0000, -3.177246899119106E+08, -3.154233462068363E+08, 9.040873178349465E+06,
2460819.500000000, A.D. 2025-May-24 00:00:00.0000, -3.122889512832676E+08, -3.224606407985374E+08, 9.612015201000288E+06,
2460826.500000000, A.D. 2025-May-31 00:00:00.0000, -3.066857201624522E+08, -3.293250325448569E+08, 1.017800297900862E+07,
2460833.500000000, A.D. 2025-Jun-07 00:00:00.0000, -3.009192392152805E+08, -3.360141698765635E+08, 1.073857376904950E+07,
2460840.500000000, A.D. 2025-Jun-14 00:00:00.0000, -2.949937076753881E+08, -3.425257540501986E+08, 1.129346936619776E+07,
2460847.500000000, A.D. 2025-Jun-21 00:00:00.0000, -2.889132861251277E+08, -3.488575359172309E+08, 1.184243590887229E+07,
2460854.500000000, A.D. 2025-Jun-28 00:00:00.0000, -2.826820990964107E+08, -3.550073137362393E+08, 1.238522342611279E+07,
2460861.500000000, A.D. 2025-Jul-05 00:00:00.0000, -2.763042370080289E+08, -3.609729298584021E+08, 1.292158544204903E+07,
2460868.500000000, A.D. 2025-Jul-12 00:00:00.0000, -2.697837586297516E+08, -3.667522670783694E+08, 1.345127868044110E+07,
2460875.500000000, A.D. 2025-Jul-19 00:00:00.0000, -2.631246938827683E+08, -3.723432452135233E+08, 1.397406280426805E+07,
2460882.500000000, A.D. 2025-Jul-26 00:00:00.0000, -2.563310467661941E+08, -3.777438179578693E+08, 1.448970016583478E+07,
2460889.500000000, A.D. 2025-Aug-02 00:00:00.0000, -2.494067983449507E+08, -3.829519699800546E+08, 1.499795556263426E+07,
2460896.500000000, A.D. 2025-Aug-09 00:00:00.0000, -2.423559097773077E+08, -3.879657142720066E+08, 1.549859599524683E+07,
2460903.500000000, A.D. 2025-Aug-16 00:00:00.0000, -2.351823253073663E+08, -3.927830898036293E+08, 1.599139041478094E+07,
2460910.500000000, A.D. 2025-Aug-23 00:00:00.0000, -2.278899749323539E+08, -3.974021594597729E+08, 1.647610943414158E+07,
2460917.500000000, A.D. 2025-Aug-30 00:00:00.0000, -2.204827764185668E+08, -4.018210075386847E+08, 1.695252503112511E+07,
2460924.500000000, A.D. 2025-Sep-06 00:00:00.0000, -2.129646380869233E+08, -4.060377358051574E+08, 1.742041045496629E+07,
2460931.500000000, A.D. 2025-Sep-13 00:00:00.0000, -2.053394640413934E+08, -4.100504605754268E+08, 1.787954028639635E+07,
2460938.500000000, A.D. 2025-Sep-20 00:00:00.0000, -1.976111585701847E+08, -4.138573124744472E+08, 1.832969021639204E+07,
2460945.500000000, A.D. 2025-Sep-27 00:00:00.0000, -1.897836286656896E+08, -4.174564357512864E+08, 1.877063670079961E+07,
2460952.500000000, A.D. 2025-Oct-04 00:00:00.0000, -1.818607866848298E+08, -4.208459866101630E+08, 1.920215671986520E+07,
2460959.500000000, A.D. 2025-Oct-11 00:00:00.0000, -1.738465535281586E+08, -4.240241314966904E+08, 1.962402759973127E+07,
2460966.500000000, A.D. 2025-Oct-18 00:00:00.0000, -1.657448620585867E+08, -4.269890456107774E+08, 2.003602684715936E+07,
2460973.500000000, A.D. 2025-Oct-25 00:00:00.0000, -1.575596606247011E+08, -4.297389116331680E+08, 2.043793198518857E+07,
2460980.500000000, A.D. 2025-Nov-01 00:00:00.0000, -1.492949166541359E+08, -4.322719186493613E+08, 2.082952038699704E+07,
2460987.500000000, A.D. 2025-Nov-08 00:00:00.0000, -1.409546202880655E+08, -4.345862613025333E+08, 2.121056910193864E+07,
2460994.500000000, A.D. 2025-Nov-15 00:00:00.0000, -1.325427879152071E+08, -4.366801392348033E+08, 2.158085465517429E+07,
2461001.500000000, A.D. 2025-Nov-22 00:00:00.0000, -1.240634652093225E+08, -4.385517565980579E+08, 2.194015280174562E+07,
2461008.500000000, A.D. 2025-Nov-29 00:00:00.0000, -1.155207298305712E+08, -4.401993205010375E+08, 2.228823834172755E+07,
2461015.500000000, A.D. 2025-Dec-06 00:00:00.0000, -1.069186960755432E+08, -4.416210385302488E+08, 2.262488519401920E+07,
2461022.500000000, A.D. 2025-Dec-13 00:00:00.0000, -9.826152104955171E+07, -4.428151187169192E+08, 2.294986641329822E+07,
2461029.500000000, A.D. 2025-Dec-20 00:00:00.0000, -8.955340887570687E+07, -4.437797709301175E+08, 2.326295391323692E+07,
2461036.500000000, A.D. 2025-Dec-27 00:00:00.0000, -8.079861402280837E+07, -4.445132071081580E+08, 2.356391820621702E+07,
2461043.500000000, A.D. 2026-Jan-03 00:00:00.0000, -7.200144521878625E+07, -4.450136409470187E+08, 2.385252824295589E+07,
2461050.500000000, A.D. 2026-Jan-10 00:00:00.0000, -6.316626984666090E+07, -4.452792877293683E+08, 2.412855128638127E+07,
2461057.500000000, A.D. 2026-Jan-17 00:00:00.0000, -5.429751859749890E+07, -4.453083643929763E+08, 2.439175279102215E+07,
2461064.500000000, A.D. 2026-Jan-24 00:00:00.0000, -4.539969031058276E+07, -4.450990898252429E+08, 2.464189628296328E+07,
2461071.500000000, A.D. 2026-Jan-31 00:00:00.0000, -3.647735698676907E+07, -4.446496854021035E+08, 2.487874323818010E+07,
2461078.500000000, A.D. 2026-Feb-07 00:00:00.0000, -2.753516892395090E+07, -4.439583758403469E+08, 2.510205294967014E+07,
2461085.500000000, A.D. 2026-Feb-14 00:00:00.0000, -1.857785973253898E+07, -4.430233903909091E+08, 2.531158235971472E+07,
2461092.500000000, A.D. 2026-Feb-21 00:00:00.0000, -9.610250854492875E+06, -4.418429638091560E+08, 2.550708586965117E+07,
2461099.500000000, A.D. 2026-Feb-28 00:00:00.0000, -6.372566818366403E+05, -4.404153359626926E+08, 2.568831532161444E+07,
2461106.500000000, A.D. 2026-Mar-07 00:00:00.0000, 8.336107656070965E+06, -4.387387520416380E+08, 2.585502018224519E+07,
2461113.500000000, A.D. 2026-Mar-14 00:00:00.0000, 1.730471860235652E+07, -4.368114657215973E+08, 2.600694748372868E+07,
2461120.500000000, A.D. 2026-Mar-21 00:00:00.0000, 2.626333835233916E+07, -4.346317424028666E+08, 2.614384159648469E+07,
2461127.500000000, A.D. 2026-Mar-28 00:00:00.0000, 3.520660888274593E+07, -4.321978615212311E+08, 2.626544410317710E+07,
2461134.500000000, A.D. 2026-Apr-04 00:00:00.0000, 4.412904521548604E+07, -4.295081189217416E+08, 2.637149375190625E+07,
2461141.500000000, A.D. 2026-Apr-11 00:00:00.0000, 5.302502817877349E+07, -4.265608296834657E+08, 2.646172643557395E+07,
2461148.500000000, A.D. 2026-Apr-18 00:00:00.0000, 6.188879681401385E+07, -4.233543314325153E+08, 2.653587518390676E+07,
2461155.500000000, A.D. 2026-Apr-25 00:00:00.0000, 7.071444046412604E+07, -4.198869881620026E+08, 2.659367016685566E+07,
2461162.500000000, A.D. 2026-May-02 00:00:00.0000, 7.949589056502737E+07, -4.161571946254348E+08, 2.663483870604694E+07,
2461169.500000000, A.D. 2026-May-09 00:00:00.0000, 8.822691225701159E+07, -4.121633814112125E+08, 2.665910527974860E+07,
2461176.500000000, A.D. 2026-May-16 00:00:00.0000, 9.690109618670002E+07, -4.079040206061874E+08, 2.666619150074127E+07,
2461183.500000000, A.D. 2026-May-23 00:00:00.0000, 1.055118505446246E+08, -4.033776310766938E+08, 2.665581614892809E+07,
2461190.500000000, A.D. 2026-May-30 00:00:00.0000, 1.140523912541349E+08, -3.985827831020055E+08, 2.662769547852443E+07,
2461197.500000000, A.D. 2026-Jun-06 00:00:00.0000, 1.225157299907286E+08, -3.935181056918215E+08, 2.658154356444052E+07,
2461204.500000000, A.D. 2026-Jun-13 00:00:00.0000, 1.308946636979174E+08, -3.881822964531199E+08, 2.651707237132594E+07,
2461211.500000000, A.D. 2026-Jun-20 00:00:00.0000, 1.391817651018005E+08, -3.825741311526852E+08, 2.643399183458388E+07,
2461218.500000000, A.D. 2026-Jun-27 00:00:00.0000, 1.473693725318966E+08, -3.766924733942555E+08, 2.633201008607243E+07,
2461225.500000000, A.D. 2026-Jul-04 00:00:00.0000, 1.554495790579233E+08, -3.705362852705858E+08, 2.621083376628496E+07,
2461232.500000000, A.D. 2026-Jul-11 00:00:00.0000, 1.634142212112073E+08, -3.641046392147633E+08, 2.607016839453602E+07,
2461239.500000000, A.D. 2026-Jul-18 00:00:00.0000, 1.712548674040907E+08, -3.573967311247507E+08, 2.590971879685076E+07,
2461246.500000000, A.D. 2026-Jul-25 00:00:00.0000, 1.789628060999464E+08, -3.504118948653405E+08, 2.572918959611090E+07,
2461253.500000000, A.D. 2026-Aug-01 00:00:00.0000, 1.865290338202538E+08, -3.431496183104466E+08, 2.552828576336019E+07,
2461260.500000000, A.D. 2026-Aug-08 00:00:00.0000, 1.939442432547987E+08, -3.356095610867027E+08, 2.530671321616353E+07,
2461267.500000000, A.D. 2026-Aug-15 00:00:00.0000, 2.011988119548019E+08, -3.277915737059259E+08, 2.506417947306015E+07,
2461274.500000000, A.D. 2026-Aug-22 00:00:00.0000, 2.082827909256315E+08, -3.196957170157861E+08, 2.480039454549031E+07,
2461281.500000000, A.D. 2026-Aug-29 00:00:00.0000, 2.151858909209448E+08, -3.113222835011399E+08, 2.451507217729749E+07,
2461288.500000000, A.D. 2026-Sep-05 00:00:00.0000, 2.218974686802023E+08, -3.026718234695879E+08, 2.420793101416776E+07,
$$EOE